[{"OBJECT_NAME":"ONEWEB-0181","OBJECT_ID":"2021-031W","EPOCH":"2025-11-20T07:17:33.124704","MEAN_MOTION":13.14501862,"ECCENTRICITY":0.00018708,"INCLINATION":87.8972,"RA_OF_ASC_NODE":331.3626,"ARG_OF_PERICENTER":85.2826,"MEAN_ANOMALY":274.8517,"EPHEMERIS_TYPE":0,"CLASSIFICATION_TYPE":"U","NORAD_CAT_ID":48230,"ELEMENT_SET_NO":999,"REV_AT_EPOCH":22079,"BSTAR":0.00013502341,"MEAN_MOTION_DOT":6.3e-7,"MEAN_MOTION_DDOT":0},{"OBJECT_NAME":"ONEWEB-0188","OBJECT_ID":"2021-031X","EPOCH":"2025-11-20T06:22:45.672960","MEAN_MOTION":13.14503243,"ECCENTRICITY":0.00017209,"INCLINATION":87.898,"RA_OF_ASC_NODE":331.3662,"ARG_OF_PERICENTER":90.3333,"MEAN_ANOMALY":269.7994,"EPHEMERIS_TYPE":0,"CLASSIFICATION_TYPE":"U","NORAD_CAT_ID":48231,"ELEMENT_SET_NO":999,"REV_AT_EPOCH":22069,"BSTAR":0.00010039063,"MEAN_MOTION_DOT":5.0e-7,"MEAN_MOTION_DDOT":0},{"OBJECT_NAME":"ONEWEB-0220","OBJECT_ID":"2021-031Y","EPOCH":"2025-11-20T07:19:51.207456","MEAN_MOTION":13.14503113,"ECCENTRICITY":0.00016381,"INCLINATION":87.8994,"RA_OF_ASC_NODE":331.3037,"ARG_OF_PERICENTER":85.0868,"MEAN_ANOMALY":275.0449,"EPHEMERIS_TYPE":0,"CLASSIFICATION_TYPE":"U","NORAD_CAT_ID":48232,"ELEMENT_SET_NO":999,"REV_AT_EPOCH":22096,"BSTAR":0.0001469007,"MEAN_MOTION_DOT":6.7e-7,"MEAN_MOTION_DDOT":0},{"OBJECT_NAME":"ONEWEB-0165","OBJECT_ID":"2021-031Z","EPOCH":"2025-11-20T06:11:21.217344","MEAN_MOTION":13.14500706,"ECCENTRICITY":0.00020471,"INCLINATION":87.8974,"RA_OF_ASC_NODE":331.3429,"ARG_OF_PERICENTER":82.9124,"MEAN_ANOMALY":277.2239,"EPHEMERIS_TYPE":0,"CLASSIFICATION_TYPE":"U","NORAD_CAT_ID":48233,"ELEMENT_SET_NO":999,"REV_AT_EPOCH":22091,"BSTAR":0.00018224962,"MEAN_MOTION_DOT":8.0e-7,"MEAN_MOTION_DDOT":0},{"OBJECT_NAME":"ONEWEB-0199","OBJECT_ID":"2021-031AA","EPOCH":"2025-11-20T02:09:17.656416","MEAN_MOTION":13.14502939,"ECCENTRICITY":0.00018742,"INCLINATION":87.8985,"RA_OF_ASC_NODE":331.349,"ARG_OF_PERICENTER":95.2719,"MEAN_ANOMALY":264.8625,"EPHEMERIS_TYPE":0,"CLASSIFICATION_TYPE":"U","NORAD_CAT_ID":48234,"ELEMENT_SET_NO":999,"REV_AT_EPOCH":22079,"BSTAR":0.00058589322,"MEAN_MOTION_DOT":2.3e-6,"MEAN_MOTION_DDOT":0},{"OBJECT_NAME":"ONEWEB-0203","OBJECT_ID":"2021-031AB","EPOCH":"2025-11-20T07:24:24.116544","MEAN_MOTION":13.14502086,"ECCENTRICITY":0.00021214,"INCLINATION":87.8987,"RA_OF_ASC_NODE":331.307,"ARG_OF_PERICENTER":91.9573,"MEAN_ANOMALY":268.1799,"EPHEMERIS_TYPE":0,"CLASSIFICATION_TYPE":"U","NORAD_CAT_ID":48235,"ELEMENT_SET_NO":999,"REV_AT_EPOCH":22083,"BSTAR":0.00041202539,"MEAN_MOTION_DOT":1.66e-6,"MEAN_MOTION_DDOT":0},{"OBJECT_NAME":"ONEWEB-0197","OBJECT_ID":"2021-031AC","EPOCH":"2025-11-20T06:47:40.662528","MEAN_MOTION":13.14502516,"ECCENTRICITY":0.00015097,"INCLINATION":87.8983,"RA_OF_ASC_NODE":331.3096,"ARG_OF_PERICENTER":94.4911,"MEAN_ANOMALY":265.6391,"EPHEMERIS_TYPE":0,"CLASSIFICATION_TYPE":"U","NORAD_CAT_ID":48236,"ELEMENT_SET_NO":999,"REV_AT_EPOCH":22074,"BSTAR":-0.0005756326,"MEAN_MOTION_DOT":-2.01e-6,"MEAN_MOTION_DDOT":0},{"OBJECT_NAME":"ONEWEB-0194","OBJECT_ID":"2021-031AD","EPOCH":"2025-11-20T06:18:10.573632","MEAN_MOTION":13.14501446,"ECCENTRICITY":0.00020138,"INCLINATION":87.8989,"RA_OF_ASC_NODE":331.3309,"ARG_OF_PERICENTER":96.1562,"MEAN_ANOMALY":263.9797,"EPHEMERIS_TYPE":0,"CLASSIFICATION_TYPE":"U","NORAD_CAT_ID":48237,"ELEMENT_SET_NO":999,"REV_AT_EPOCH":22091,"BSTAR":0.00011706693,"MEAN_MOTION_DOT":5.6e-7,"MEAN_MOTION_DDOT":0},{"OBJECT_NAME":"ONEWEB-0193","OBJECT_ID":"2021-031AE","EPOCH":"2025-11-20T06:41:01.732128","MEAN_MOTION":13.14503877,"ECCENTRICITY":0.0002114,"INCLINATION":87.8984,"RA_OF_ASC_NODE":331.3232,"ARG_OF_PERICENTER":101.6748,"MEAN_ANOMALY":258.4619,"EPHEMERIS_TYPE":0,"CLASSIFICATION_TYPE":"U","NORAD_CAT_ID":48238,"ELEMENT_SET_NO":999,"REV_AT_EPOCH":22086,"BSTAR":-0.0003977384,"MEAN_MOTION_DOT":-1.35e-6,"MEAN_MOTION_DDOT":0},{"OBJECT_NAME":"ONEWEB-0191","OBJECT_ID":"2021-031AF","EPOCH":"2025-11-20T01:28:11.021088","MEAN_MOTION":13.14502763,"ECCENTRICITY":0.00018228,"INCLINATION":87.8992,"RA_OF_ASC_NODE":331.354,"ARG_OF_PERICENTER":92.9087,"MEAN_ANOMALY":267.2252,"EPHEMERIS_TYPE":0,"CLASSIFICATION_TYPE":"U","NORAD_CAT_ID":48239,"ELEMENT_SET_NO":999,"REV_AT_EPOCH":22069,"BSTAR":-0.00045316662,"MEAN_MOTION_DOT":-1.55e-6,"MEAN_MOTION_DDOT":0},{"OBJECT_NAME":"ONEWEB-0195","OBJECT_ID":"2021-031AG","EPOCH":"2025-11-20T06:23:53.477952","MEAN_MOTION":13.14504636,"ECCENTRICITY":0.00019761,"INCLINATION":87.9,"RA_OF_ASC_NODE":331.3088,"ARG_OF_PERICENTER":79.9793,"MEAN_ANOMALY":280.1559,"EPHEMERIS_TYPE":0,"CLASSIFICATION_TYPE":"U","NORAD_CAT_ID":48240,"ELEMENT_SET_NO":999,"REV_AT_EPOCH":22070,"BSTAR":-2.102911e-5,"MEAN_MOTION_DOT":5.0e-8,"MEAN_MOTION_DDOT":0},{"OBJECT_NAME":"ONEWEB-0201","OBJECT_ID":"2021-031AH","EPOCH":"2025-11-20T06:06:57.426912","MEAN_MOTION":13.14500882,"ECCENTRICITY":0.00015929,"INCLINATION":87.8981,"RA_OF_ASC_NODE":331.3545,"ARG_OF_PERICENTER":84.656,"MEAN_ANOMALY":275.4752,"EPHEMERIS_TYPE":0,"CLASSIFICATION_TYPE":"U","NORAD_CAT_ID":48241,"ELEMENT_SET_NO":999,"REV_AT_EPOCH":22093,"BSTAR":0.00038712388,"MEAN_MOTION_DOT":1.56e-6,"MEAN_MOTION_DDOT":0},{"OBJECT_NAME":"ONEWEB-0207","OBJECT_ID":"2021-031AJ","EPOCH":"2025-11-20T01:58:59.983680","MEAN_MOTION":13.14501612,"ECCENTRICITY":0.00016115,"INCLINATION":87.8989,"RA_OF_ASC_NODE":331.3474,"ARG_OF_PERICENTER":90.048,"MEAN_ANOMALY":270.0834,"EPHEMERIS_TYPE":0,"CLASSIFICATION_TYPE":"U","NORAD_CAT_ID":48242,"ELEMENT_SET_NO":999,"REV_AT_EPOCH":22082,"BSTAR":0.00057499313,"MEAN_MOTION_DOT":2.26e-6,"MEAN_MOTION_DDOT":0},{"OBJECT_NAME":"ONEWEB-0208","OBJECT_ID":"2021-031AK","EPOCH":"2025-11-20T07:01:34.819104","MEAN_MOTION":13.14502716,"ECCENTRICITY":0.00019144,"INCLINATION":87.8986,"RA_OF_ASC_NODE":331.3221,"ARG_OF_PERICENTER":85.2223,"MEAN_ANOMALY":274.9125,"EPHEMERIS_TYPE":0,"CLASSIFICATION_TYPE":"U","NORAD_CAT_ID":48243,"ELEMENT_SET_NO":999,"REV_AT_EPOCH":22086,"BSTAR":-0.0003038382,"MEAN_MOTION_DOT":-1.0e-6,"MEAN_MOTION_DDOT":0},{"OBJECT_NAME":"ONEWEB-0200","OBJECT_ID":"2021-031AL","EPOCH":"2025-11-20T06:09:03.341952","MEAN_MOTION":13.14501866,"ECCENTRICITY":0.0001817,"INCLINATION":87.8988,"RA_OF_ASC_NODE":331.319,"ARG_OF_PERICENTER":87.9718,"MEAN_ANOMALY":272.162,"EPHEMERIS_TYPE":0,"CLASSIFICATION_TYPE":"U","NORAD_CAT_ID":48244,"ELEMENT_SET_NO":999,"REV_AT_EPOCH":22078,"BSTAR":0.00037097727,"MEAN_MOTION_DOT":1.5e-6,"MEAN_MOTION_DDOT":0},{"OBJECT_NAME":"ONEWEB-0217","OBJECT_ID":"2021-031AM","EPOCH":"2025-11-20T06:31:53.186304","MEAN_MOTION":13.14501985,"ECCENTRICITY":0.00019949,"INCLINATION":87.8995,"RA_OF_ASC_NODE":331.3083,"ARG_OF_PERICENTER":83.2514,"MEAN_ANOMALY":276.8843,"EPHEMERIS_TYPE":0,"CLASSIFICATION_TYPE":"U","NORAD_CAT_ID":48245,"ELEMENT_SET_NO":999,"REV_AT_EPOCH":22073,"BSTAR":-0.00023882967,"MEAN_MOTION_DOT":-7.6e-7,"MEAN_MOTION_DDOT":0}]
