ONEWEB-0181             
1 48230U 21031W   25324.30385561  .00000063  00000+0  13502-3 0  9993
2 48230  87.8972 331.3626 0001870  85.2826 274.8517 13.14501862220796
ONEWEB-0188             
1 48231U 21031X   25324.26580640  .00000050  00000+0  10039-3 0  9992
2 48231  87.8980 331.3662 0001720  90.3333 269.7994 13.14503243220696
ONEWEB-0220             
1 48232U 21031Y   25324.30545379  .00000067  00000+0  14690-3 0  9993
2 48232  87.8994 331.3037 0001638  85.0868 275.0449 13.14503113220961
ONEWEB-0165             
1 48233U 21031Z   25324.25788446  .00000080  00000+0  18225-3 0  9995
2 48233  87.8974 331.3429 0002047  82.9124 277.2239 13.14500706220912
ONEWEB-0199             
1 48234U 21031AA  25324.08978769  .00000230  00000+0  58589-3 0  9990
2 48234  87.8985 331.3490 0001874  95.2719 264.8625 13.14502939220794
ONEWEB-0203             
1 48235U 21031AB  25324.30861246  .00000166  00000+0  41203-3 0  9990
2 48235  87.8987 331.3070 0002121  91.9573 268.1799 13.14502086220835
ONEWEB-0197             
1 48236U 21031AC  25324.28310952 -.00000201  00000+0 -57563-3 0  9999
2 48236  87.8983 331.3096 0001509  94.4911 265.6391 13.14502516220741
ONEWEB-0194             
1 48237U 21031AD  25324.26262238  .00000056  00000+0  11707-3 0  9997
2 48237  87.8989 331.3309 0002013  96.1562 263.9797 13.14501446220918
ONEWEB-0193             
1 48238U 21031AE  25324.27849227 -.00000135  00000+0 -39774-3 0  9992
2 48238  87.8984 331.3232 0002114 101.6748 258.4619 13.14503877220865
ONEWEB-0191             
1 48239U 21031AF  25324.06123867 -.00000155  00000+0 -45317-3 0  9997
2 48239  87.8992 331.3540 0001822  92.9087 267.2252 13.14502763220695
ONEWEB-0195             
1 48240U 21031AG  25324.26659118  .00000005  00000+0 -21029-4 0  9992
2 48240  87.9000 331.3088 0001976  79.9793 280.1559 13.14504636220701
ONEWEB-0201             
1 48241U 21031AH  25324.25483133  .00000156  00000+0  38712-3 0  9996
2 48241  87.8981 331.3545 0001592  84.6560 275.4752 13.14500882220932
ONEWEB-0207             
1 48242U 21031AJ  25324.08263870  .00000226  00000+0  57499-3 0  9993
2 48242  87.8989 331.3474 0001611  90.0480 270.0834 13.14501612220828
ONEWEB-0208             
1 48243U 21031AK  25324.29276411 -.00000100  00000+0 -30384-3 0  9999
2 48243  87.8986 331.3221 0001914  85.2223 274.9125 13.14502716220869
ONEWEB-0200             
1 48244U 21031AL  25324.25628868  .00000150  00000+0  37098-3 0  9995
2 48244  87.8988 331.3190 0001817  87.9718 272.1620 13.14501866220783
ONEWEB-0217             
1 48245U 21031AM  25324.27214336 -.00000076  00000+0 -23883-3 0  9995
2 48245  87.8995 331.3083 0001994  83.2514 276.8843 13.14501985220737
